{
"type": "FeatureCollection",
"name": "Major_Projects_Location",
"crs": { "type": "name", "properties": { "name": "urn:ogc:def:crs:OGC:1.3:CRS84" } },
"features": [
{ "type": "Feature", "properties": { "OBJECTID": 1, "District": 1, "Project_Title": "I-35/80/235 interchange NE of Des Moines (Northeast Mix Master)", "Project_Number": "IM-035-3(194)87--13-77\nIM-035-3(195)87--13-77", "Description": "Grading of relocated EB I-80 to I-235 & WB I-80 to NB I-35 ramps. New flyover bridge on EB I-35/80 to NB I-35, new bridges on relocated EB I-80 to I-235 ramp over UPRR & Broadway Ave, & new bridge on relocated WB I-80 to NB I-35 ramp over NE 29th St. ", "Start_Date": "August 2022", "End_Date": "2024.0", "Detour": "For the most recent detour/traffic control information, visit https://www.511ia.org/", "Contact_name": "Frank Leong", "Contact_Email": "Frank.Leong@iowadot.us ", "PIM": null, "Additional_Project_Info": null, "Share_Link": null }, "geometry": { "type": "Point", "coordinates": [ -93.575684, 41.652035, 0.0 ] } },
{ "type": "Feature", "properties": { "OBJECTID": 2, "District": 1, "Project_Title": "I-35 Polk/Story County", "Project_Number": "IM-NHS-035-4(244)95--03-77", "Description": "Grade and pave new SB lanes of I-35 from NE 36th St. in Ankeny to .5 miles south of 158th Ave. Project includes the reconstruction of the Elkharrt interchange, which will be closed through the 2023 season.", "Start_Date": "March 29, 2023", "End_Date": "2024.0", "Detour": "For the most recent detour/traffic control information, visit https://www.511ia.org/", "Contact_name": "Dustin Skogerboe", "Contact_Email": "dustin.skogerboe@iowadot.us ", "PIM": "https://www.news.iowadot.gov/pim/2021/06/interstate-35-in-polk-and-story-counties.html ", "Additional_Project_Info": null, "Share_Link": null }, "geometry": { "type": "Point", "coordinates": [ -93.5707916, 41.788188, 0.0 ] } },
{ "type": "Feature", "properties": { "OBJECTID": 3, "District": 1, "Project_Title": "US 63 Super 2 in Poweshiek & Tama County ", "Project_Number": "NHSX-063-4(053)--3H-79\nNHSX-063-5(073)--3H-86", "Description": "Super 2 improvements will accompany the pavement rehabilitation projects on US 63 from US 6 to the south city limits of Tama. Improvements will include fully paved shoulders, climbing and passing lanes, and right/left turn lanes at Co Rd E64/350th St.", "Start_Date": "April 1, 2024", "End_Date": "Fall 2024", "Detour": "Traffic will be detoured on US 6, IA 21 and US 30 for the duration of the road closure. Details for the detour route can be found at 511ia.org.", "Contact_name": "Jeremy Vortherms", "Contact_Email": "Jeremey.Vortherms@iowadot.us", "PIM": "https://www.news.iowadot.gov/pim/2022/11/proposed-improvements-to-us-63-to-be-discussed-in-tama-on-december-6-2022.html", "Additional_Project_Info": null, "Share_Link": null }, "geometry": { "type": "Point", "coordinates": [ -92.591328, 41.804667, 0.0 ] } },
{ "type": "Feature", "properties": { "OBJECTID": 4, "District": 1, "Project_Title": "I-35 Polk/Story County", "Project_Number": "IM-NHS-035-4(248)95--03-77", "Description": "Grade and Pave new SB lanes of I-35 from just N of I-35 rest areas North to N. of 315th Street. Project includes the reconstruction of 158th Street and 315th Street bridges over I-35, and the reconstruction of the Ia 210 (Huxley) interchange, which will b", "Start_Date": "April 1, 2024", "End_Date": "Fall 2025", "Detour": "For the most recent detour/traffic control information, visit https://www.511ia.org/", "Contact_name": "Dustin Skogerboe", "Contact_Email": "dustin.skogerboe@iowadot.us ", "PIM": "https://www.news.iowadot.gov/pim/2021/06/interstate-35-in-polk-and-story-counties.html", "Additional_Project_Info": null, "Share_Link": null }, "geometry": { "type": "Point", "coordinates": [ -93.57113, 41.845067, 0.0 ] } },
{ "type": "Feature", "properties": { "OBJECTID": 5, "District": 1, "Project_Title": "Business US 20 in Fort Dodge", "Project_Number": "BRF-926-0-(17)--38-94 \nBRF-926-0(19)--38-94 ", "Description": "Bridge Replacements on Business US 20 over the Des Moines River and B Ave, and over CNRR and 7th St. in Fort Dodge. ", "Start_Date": "20231120", "End_Date": "Fall 2025", "Detour": "For the most recent detour/traffic control information, visit https://www.511ia.org/", "Contact_name": "Jenny Hoskins", "Contact_Email": "Jenny.hoskins@iowadot.us", "PIM": "https://www.news.iowadot.gov/pim/2022/08/proposed-bridge-improvements-for-business-us-20-us-169-to-be-discussed-in-fort-dodge-on-august-16-20.html", "Additional_Project_Info": null, "Share_Link": null }, "geometry": { "type": "Point", "coordinates": [ -94.187957, 42.496005, 0.0 ] } },
{ "type": "Feature", "properties": { "OBJECTID": 6, "District": 1, "Project_Title": "US 30/580th Ave. in Story County", "Project_Number": "NHSX-030-5(260)--3H-85", "Description": "Grade and Pave new interchange at the intersection of US 30 and 580th Ave. 1.5 miles east of I-35. Project includes new frontage roads north and south of US 30, and closing of US 30 and 580th at grade intersection.", "Start_Date": "April 1, 2024", "End_Date": "Fall 2024", "Detour": "For the most recent detour/traffic control information, visit https://www.511ia.org/", "Contact_name": "Jenny Hoskins", "Contact_Email": "Jenny.hoskins@iowadot.us", "PIM": "https://www.news.iowadot.gov/pim/2019/10/us-30-story-county-oct-24.html", "Additional_Project_Info": null, "Share_Link": null }, "geometry": { "type": "Point", "coordinates": [ -93.540965, 42.029969, 0.0 ] } },
{ "type": "Feature", "properties": { "OBJECTID": 7, "District": 2, "Project_Title": "PCC replacement for the intersection at IA 27/58 at Ridgeway in Cedar Falls", "Project_Number": "NHSX-27-7(8)--3H-07", "Description": "The project is to reconstruct IA 27/58 and Ridgeway intersection. The project entails reconstructing from just south of Viking Rd. to US 20. Traffic will be reduced to one lane in each direction. Construction will require two years to complete.", "Start_Date": "April 10, 2023", "End_Date": "Fall 2024", "Detour": "The west half of the US 20 interchange will have 2 ramps closed. Details for the detour route can be found at 511ia.org.", "Contact_name": "Ron Loecher", "Contact_Email": "ron.loecher@iowadot.us", "PIM": null, "Additional_Project_Info": null, "Share_Link": null }, "geometry": { "type": "Point", "coordinates": [ -92.445684, 42.469275, 0.0 ] } },
{ "type": "Feature", "properties": { "OBJECTID": 8, "District": 2, "Project_Title": "Bridge replacement, Mississippi River Bridge in Lansing", "Project_Number": "STP-009-9(84)--2C-03", "Description": "This project is to replace the existing river-crossing bridge at Lansing and reconstruct the approaches on each end.", "Start_Date": "September 11, 2023", "End_Date": "November 2026", "Detour": "Detour will be in effect when connections at both ends are being made. Details for the detour route can be found at 511ia.org.", "Contact_name": "Ron Loecher", "Contact_Email": "ron.loecher@iowadot.us", "PIM": null, "Additional_Project_Info": "https://iowadot.gov/lansingbridge", "Share_Link": null }, "geometry": { "type": "Point", "coordinates": [ -91.216095, 43.364821, 0.0 ] } },
{ "type": "Feature", "properties": { "OBJECTID": 9, "District": 2, "Project_Title": "New Interchange, Cedar River in Janesville to IA 116 in Waverly.", "Project_Number": "NHSX-218-8(124)--3H-09", "Description": "This project is to eliminate at-grade access to US 218 between Janesville and Waverly.", "Start_Date": "April 2024", "End_Date": "November 2025", "Detour": "Various detours for side roads will be in place during staging. US 218 will remain open to at lease on lane in each direction. For the most recent detour/traffic control information, visit https://www.511ia.org/", "Contact_name": "Ron Loecher", "Contact_Email": "ron.loecher@iowadot.us", "PIM": "https://www.news.iowadot.gov/pim/2021/11/us-218-in-bremer-county.html", "Additional_Project_Info": null, "Share_Link": null }, "geometry": { "type": "Point", "coordinates": [ -92.472644, 42.670169, 0.0 ] } },
{ "type": "Feature", "properties": { "OBJECTID": 10, "District": 3, "Project_Title": "US 71 reconstruction in Arnolds Park and Okoboji", "Project_Number": "NHSX-071-9(78)--3H-30", "Description": "Pavement Replacement from Okoboji Grove Rd. in Arnolds Park to East View Ave. in Okoboji.", "Start_Date": "March 15, 2023", "End_Date": "Fall 2024", "Detour": "IA 9, IA 86. For the most recent detour information, visit https://www.511ia.org/", "Contact_name": "Kirk Johnson", "Contact_Email": "kirk.johnson@iowadot.us", "PIM": null, "Additional_Project_Info": null, "Share_Link": null }, "geometry": { "type": "Point", "coordinates": [ -95.127852, 43.385566, 0.0 ] } },
{ "type": "Feature", "properties": { "OBJECTID": 11, "District": 3, "Project_Title": "US 30 Bridge Replacement", "Project_Number": "BRFN-030-1(164)--39-43", "Description": "Bridge replacement at stream 2.3 miles east of Co. Road F-32. ", "Start_Date": "April 2023", "End_Date": "September 2023", "Detour": "Limited Detour mid-Summer 2023 using Harrison County F-32, Iowa 191 and Iowa 37.", "Contact_name": "Jason Klemme", "Contact_Email": "jason.klemme@iowadot.us ", "PIM": null, "Additional_Project_Info": null, "Share_Link": null }, "geometry": { "type": "Point", "coordinates": [ -95.682403, 41.764111, 0.0 ] } },
{ "type": "Feature", "properties": { "OBJECTID": 12, "District": 3, "Project_Title": "Iowa 175 Sidewalk Replacement", "Project_Number": "STPN-175-1(90)--2J-67", "Description": "PCC sidewalk/trail in Onawa.", "Start_Date": "April 2023", "End_Date": "May 2024", "Detour": "None. For the most recent detour/traffic control information, visit https://www.511ia.org/", "Contact_name": "Jason Klemme", "Contact_Email": "jason.klemme@iowadot.us ", "PIM": null, "Additional_Project_Info": null, "Share_Link": null }, "geometry": { "type": "Point", "coordinates": [ -96.096883, 42.027167, 0.0 ] } },
{ "type": "Feature", "properties": { "OBJECTID": 13, "District": 3, "Project_Title": "Iowa 175 Bridge Replacement", "Project_Number": "BRFN-175-1(73)--39-67", "Description": "Bridge replacement at McCandless Cleghorn Ditch 0.6 mi east of I-29 in Onawa.", "Start_Date": "April 2023", "End_Date": "March 2024", "Detour": "None. For the most recent detour/traffic control information, visit https://www.511ia.org/", "Contact_name": "Jason Klemme", "Contact_Email": "jason.klemme@iowadot.us ", "PIM": null, "Additional_Project_Info": null, "Share_Link": null }, "geometry": { "type": "Point", "coordinates": [ -96.12057222, 42.02703333, 0.0 ] } },
{ "type": "Feature", "properties": { "OBJECTID": 14, "District": 3, "Project_Title": "Iowa 3 Pavement Planing/Grooving", "Project_Number": "STP-003-1(099)--2C-75", "Description": "Pavement planing/grooving from South Dakota to south junction IA 12.", "Start_Date": "May 2023", "End_Date": "June 2024", "Detour": "None. For the most recent detour/traffic control information, visit https://www.511ia.org/", "Contact_name": "Jason Klemme", "Contact_Email": "jason.klemme@iowadot.us ", "PIM": null, "Additional_Project_Info": null, "Share_Link": null }, "geometry": { "type": "Point", "coordinates": [ -96.62135, 42.76280278, 0.0 ] } },
{ "type": "Feature", "properties": { "OBJECTID": 15, "District": 3, "Project_Title": "Iowa 12 Right Turn Lane", "Project_Number": "NHSN-012-1(41)--2R-97", "Description": "PCC pavement grade and new at W 19th St. intersection in Sioux City.", "Start_Date": "April 2023", "End_Date": "July 2024", "Detour": "None. For the most recent detour/traffic control information, visit https://www.511ia.org/", "Contact_name": "Jason Klemme", "Contact_Email": "jason.klemme@iowadot.us ", "PIM": null, "Additional_Project_Info": null, "Share_Link": null }, "geometry": { "type": "Point", "coordinates": [ -96.47437778, 42.515, 0.0 ] } },
{ "type": "Feature", "properties": { "OBJECTID": 16, "District": 3, "Project_Title": "US 20 Reconstruction", "Project_Number": "NHSX-020-1(179)--3H-97, (188)(189)(190)(195)BRF(193)", "Description": "PCC pavement at US 75 / IA 12 interchange in Sioux City to Little Whiskey Creek (EB/WB).", "Start_Date": "April 2023", "End_Date": "November 2024", "Detour": "None. For the most recent detour/traffic control information, visit https://www.511ia.org/", "Contact_name": "Jason Klemme", "Contact_Email": "jason.klemme@iowadot.us ", "PIM": null, "Additional_Project_Info": null, "Share_Link": null }, "geometry": { "type": "Point", "coordinates": [ -96.30143611, 42.47535278, 0.0 ] } },
{ "type": "Feature", "properties": { "OBJECTID": 17, "District": 3, "Project_Title": "I-29 & Iowa 141 Interchange Reconstruction", "Project_Number": "IMX-029-6(294)127--02-97, (295)(296)(297)", "Description": "Reconstruction of the I-29 and IA 141 interchange.", "Start_Date": "September 2023", "End_Date": "October 2024", "Detour": "None. For the most recent detour/traffic control information, visit https://www.511ia.org/", "Contact_name": "Jason Klemme", "Contact_Email": "jason.klemme@iowadot.us ", "PIM": null, "Additional_Project_Info": null, "Share_Link": null }, "geometry": { "type": "Point", "coordinates": [ -96.24201389, 42.22883611, 0.0 ] } },
{ "type": "Feature", "properties": { "OBJECTID": 18, "District": 3, "Project_Title": "US 75 Reconstruction", "Project_Number": "NHSX-075-3(55)--3H-84", "Description": "PCC pavement - grade and replace from Riviera Rd. to 13th St. S in Sioux Center.", "Start_Date": "April 2023", "End_Date": "August 24", "Detour": "None", "Contact_name": "Jason Klemme", "Contact_Email": "jason.klemme@iowadot.us ", "PIM": null, "Additional_Project_Info": null, "Share_Link": null }, "geometry": { "type": "Point", "coordinates": [ -96.174864, 43.060956, 0.0 ] } },
{ "type": "Feature", "properties": { "OBJECTID": 19, "District": 4, "Project_Title": "I-29/I-80/I-480 in Council Bluffs", "Project_Number": "IM-NHS-29-3(115)48--03-78", "Description": "Grade/pave/bridges", "Start_Date": null, "End_Date": "Summer 2026", "Detour": "For the most recent detour/traffic control information, visit https://www.511ia.org/", "Contact_name": "Dave Dorsett", "Contact_Email": "David.Dorsett@iowadot.us ", "PIM": "http://councilbluffsinterstate.com/involvement/public-meetings/", "Additional_Project_Info": "http://councilbluffsinterstate.iowadot.gov/", "Share_Link": "https://majorprojects.iowadot.gov/?query=2019_Major_Projects_Location_6805%2CProject_Number%2CIM-NHS-29-3(115)48--03-78" }, "geometry": { "type": "Point", "coordinates": [ -95.872479553417705, 41.232422382635797, 0.0 ] } },
{ "type": "Feature", "properties": { "OBJECTID": 20, "District": 4, "Project_Title": "I-80 Raccoon River bridges near Van Meter", "Project_Number": "IMN-080-3(226)1100E-25", "Description": "Replacing E & W-bound bridges over Raccoon river. W-bound bridges will be built N of current alignment. Traffic will be placed in the new W-bound lanes while E-bound is constructed. Additional lanes will be added to make this portion of I-80 6 lanes", "Start_Date": "Fall 2021", "End_Date": "Fall 2024", "Detour": "None", "Contact_name": "Scott Suhr", "Contact_Email": "scott.suhr@iowadot.us ", "PIM": "https://www.news.iowadot.gov/pim/2019/05/interstate-80-dallas-county-june-4.html", "Additional_Project_Info": null, "Share_Link": null }, "geometry": { "type": "Point", "coordinates": [ -93.967334, 41.545266, 0.0 ] } },
{ "type": "Feature", "properties": { "OBJECTID": 21, "District": 4, "Project_Title": "I-80 W of Grand Prairie Parkway to E of Jordan Creek Parkway", "Project_Number": "18-25-080-020-01", "Description": "Widening I-80 to six lanes. This project is just starting.", "Start_Date": "Summer 2023", "End_Date": "Winter 2025", "Detour": "None", "Contact_name": "Scott Suhr", "Contact_Email": "scott.suhr@iowadot.us ", "PIM": "https://www.news.iowadot.gov/pim/2021/05/interstate-80-dallas-county.html ", "Additional_Project_Info": null, "Share_Link": null }, "geometry": { "type": "Point", "coordinates": [ -93.835969, 41.578308, 0.0 ] } },
{ "type": "Feature", "properties": { "OBJECTID": 22, "District": 4, "Project_Title": "I-29/I-480/West Broadway System Interchange ", "Project_Number": "IM-029-3(190)53--13-78", "Description": "This project is part of Segment 4 of the Council Bluffs Interstate System (CBIS).  It includes the area along I-29 and I-480 near Broadway.  Work currently under construction includes new bridges, improved interchanges and access along I-29 and I-480.", "Start_Date": "Spring 2021", "End_Date": "Summer 2024", "Detour": "I-29 to I-880 to I-80. Local traffic utilizing frontage road system parallel to I-29.", "Contact_name": "Dave Dorsett", "Contact_Email": "David.Dorsett@iowadot.us ", "PIM": "http://councilbluffsinterstate.iowadot.gov/resources/public-meetings/", "Additional_Project_Info": "http://councilbluffsinterstate.iowadot.gov/projects/west-broadway-interchange/", "Share_Link": null }, "geometry": { "type": "Point", "coordinates": [ -95.912227, 41.261537, 0.0 ] } },
{ "type": "Feature", "properties": { "OBJECTID": 23, "District": 4, "Project_Title": "Madison Avenue Interchange Council Bluffs (CBIS)", "Project_Number": "IM-NHS-080-1(447)5--03-78", "Description": "Reconstruction of Madison Avenue and expansion of I-80 from Madison Avenue to Franklin Avenue ", "Start_Date": "Fall 2022", "End_Date": "Fall 2025", "Detour": "None. For the most recent detour/traffic control information, visit https://www.511ia.org/", "Contact_name": "Dave Dorsett", "Contact_Email": "David.Dorsett@iowadot.us ", "PIM": "http://councilbluffsinterstate.iowadot.gov/resources/public-meetings/", "Additional_Project_Info": "http://councilbluffsinterstate.iowadot.gov/projects/madison/", "Share_Link": null }, "geometry": { "type": "Point", "coordinates": [ -95.824221, 41.242309, 0.0 ] } },
{ "type": "Feature", "properties": { "OBJECTID": 24, "District": 4, "Project_Title": "I-80 W of Grand Prairie Parkway to E of Jordan Creek Parkway", "Project_Number": "NHS-080-3(282)118--11-25", "Description": "This project is mainly median work between Grand Prairie Parkway and 60th St that includes a new railroad bridge in the median. The work is mostly complete for this year. There will be additional paving near the railroad bridge and Jordan Creek next year.", "Start_Date": "Spring 2023", "End_Date": "Spring 2024", "Detour": "No detour.  I-80 on existing lanes", "Contact_name": "Creston RCE\nDaniel Redmond", "Contact_Email": "daniel.redmond@iowadot.us", "PIM": null, "Additional_Project_Info": null, "Share_Link": null }, "geometry": { "type": "Point", "coordinates": [ -93.815725, 41.588544, 0.0 ] } },
{ "type": "Feature", "properties": { "OBJECTID": 25, "District": 4, "Project_Title": "Raccoon river bridges on I-80 Dallas County", "Project_Number": "IM-NHS-080-3(238)110--03-25", "Description": "Replacing existing bridges over Raccoon River on I-80 in Dallas Co. When complete, I-80 will have 3 lanes in each direction from De Soto to Van Meter. Remaining paving will be done by mid-summer 2024.", "Start_Date": "Spring 23", "End_Date": "Mid Summer 24", "Detour": "No detour.  I-80 on existing lanes", "Contact_name": "Creston RCE\nDaniel Redmond", "Contact_Email": "daniel.redmond@iowadot.us", "PIM": "https://www.news.iowadot.gov/pim/2019/05/interstate-80-dallas-county-june-4.html", "Additional_Project_Info": null, "Share_Link": null }, "geometry": { "type": "Point", "coordinates": [ -93.967258, 41.54514, 0.0 ] } },
{ "type": "Feature", "properties": { "OBJECTID": 26, "District": 4, "Project_Title": "Raccoon river bridges on I-80 Dallas County", "Project_Number": "IM-NHS-080-3-(239)110--03-2", "Description": "Replacing existing bridges over Raccoon River on I-80 in Dallas Co. When complete, I-80 will have 3 lanes in each direction from De Soto to Van Meter. Work on the new Old Portland Bridge has begun.", "Start_Date": "Late Fall 23", "End_Date": "Mid Summer 26", "Detour": "No detour.  I-80 on existing lanes", "Contact_name": "Creston RCE\nDaniel Redmond", "Contact_Email": "daniel.redmond@iowadot.us", "PIM": "https://www.news.iowadot.gov/pim/2019/05/interstate-80-dallas-county-june-4.html", "Additional_Project_Info": null, "Share_Link": null }, "geometry": { "type": "Point", "coordinates": [ -93.973782, 41.544551, 0.0 ] } },
{ "type": "Feature", "properties": { "OBJECTID": 27, "District": 5, "Project_Title": "Iowa 1 from Keokuk County line to West Centerline of Brighton", "Project_Number": "NHSX-001-4(061)--3H-92", "Description": "PCC pavement replacement and pipe culvert.", "Start_Date": "April 10, 2023", "End_Date": "Late Fall/ Early Winter 2024", "Detour": "IA 1 is closed to thru traffic at the project site. Traffic should use County Roads W-15, G-38, W-38, and Iowa 92 as the detour route while the road is being reconstructed. Details for the detour route can be found at 511ia.org.", "Contact_name": "Christy Vanbuskirk", "Contact_Email": "christy.vanbuskirk@iowadot.us", "PIM": null, "Additional_Project_Info": null, "Share_Link": null }, "geometry": { "type": "Point", "coordinates": [ -91.945351, 41.177665, 0.0 ] } },
{ "type": "Feature", "properties": { "OBJECTID": 28, "District": 5, "Project_Title": "Southbound I-35 from north of Iowa Highway 92 to south of North River.", "Project_Number": "IM-NHS-035-2(427)57--03-91", "Description": "PCC pavement (grade and new) and traffic signs.", "Start_Date": "Dec. 6, 2022", "End_Date": "Late Fall/ Early Winter 2025", "Detour": "None", "Contact_name": "Liz Finarty", "Contact_Email": "liz.finarty@iowadot.us  ", "PIM": null, "Additional_Project_Info": null, "Share_Link": null }, "geometry": { "type": "Point", "coordinates": [ -93.7806, 41.3666, 0.0 ] } },
{ "type": "Feature", "properties": { "OBJECTID": 29, "District": 5, "Project_Title": "1.4 miles north of IA 92 to north of Hoover St.", "Project_Number": "IM-NHS-035-2(489)58--03-91", "Description": "PCC pavement (grade and new). Bridge replacement.", "Start_Date": "Aug. 24, 2022", "End_Date": "Late Fall/ Early Winter", "Detour": "I-35 SB is closed to thru traffic at the project site. Traffic should use IA 92, IA 28, and IA 5 as the detour route while the bridge is being reconstructed. Details for the detour route can be found at 511ia.org.", "Contact_name": "Liz Finarty", "Contact_Email": "liz.finarty@iowadot.us  ", "PIM": null, "Additional_Project_Info": null, "Share_Link": null }, "geometry": { "type": "Point", "coordinates": [ -93.780897, 41.388379, 0.0 ] } },
{ "type": "Feature", "properties": { "OBJECTID": 30, "District": 5, "Project_Title": "US 61 from N of Mediapolis to 0.5 mi N of IA 78", "Project_Number": "NHSX-061-2(66)--3H-29", "Description": "Grading. New Tripple RCB. New Single RCB", "Start_Date": "October 16, 2023", "End_Date": "Late Fall/ Early Winter 2026", "Detour": "None", "Contact_name": "Christy Vanbuskirk", "Contact_Email": "christy.vanbuskirk@iowadot.us", "PIM": null, "Additional_Project_Info": null, "Share_Link": null }, "geometry": { "type": "Point", "coordinates": [ -91.1701, 41.0248, 0.0 ] } },
{ "type": "Feature", "properties": { "OBJECTID": 31, "District": 5, "Project_Title": "IA 92 E of US 218 to 2nd St in Columbus Junction", "Project_Number": "NHSX-092-9(57)--3H-92", "Description": "PCC Pavement (grade and replace), New Single RCB, and Traffic Signs", "Start_Date": "April 1, 2024", "End_Date": "Late Fall/ Early Winter 2025", "Detour": "IA 92 will be closed during construction. Throught traffic on IA 92 will be maintained via detours. Traffic should use US 27, G36, X17, W66, & G52 while the road is being reconstructed. Details for the detour route can be found at 511ia.org. ", "Contact_name": "Christy Vanbuskirk", "Contact_Email": "christy.vanbuskirk@iowadot.us", "PIM": null, "Additional_Project_Info": null, "Share_Link": null }, "geometry": { "type": "Point", "coordinates": [ -91.51767, 41.29343, 0.0 ] } },
{ "type": "Feature", "properties": { "OBJECTID": 32, "District": 6, "Project_Title": "US 30 in Benton County", "Project_Number": "NHSX-030-6(181)--3H-06", "Description": "About 6.5 miles of 2 lanes eastbound and 2 lane westbound will be constructed from W of Co Rd V44 to 1 mile W of US 218. ", "Start_Date": "October 1, 2021", "End_Date": "Summer 2024", "Detour": "Detours may need to used for local gravel roads. US 30 will be open throughout the duration of the project.", "Contact_name": "John Lamping", "Contact_Email": "john.lamping@iowadot.us ", "PIM": null, "Additional_Project_Info": "All traffic on EB lanes. WB to be completed early 2024.", "Share_Link": null }, "geometry": { "type": "Point", "coordinates": [ -92.187482, 41.964085, 0.0 ] } },
{ "type": "Feature", "properties": { "OBJECTID": 33, "District": 6, "Project_Title": "I-80/1st Ave interchange in Johnson County", "Project_Number": "IM-080-6(488)242--13-52", "Description": "Grading, paving, and a new bridge at the I-80 and 1st Ave interchange in Coralville. Expect ramp closures and changing traffic conditions on I-80 and 1st Ave.", "Start_Date": "October 1, 2022", "End_Date": "Fall 2024", "Detour": "Detours for Ramp closures are planned. For the most recent detour/traffic control information, visit https://www.511ia.org/", "Contact_name": "Adrian Simonson", "Contact_Email": "Adrian.Simonson@iowadot.us ", "PIM": null, "Additional_Project_Info": "I-80 traffic shifted for median peir work. Nighttime lane closures on I80. 1st ave traffic placed head to head.", "Share_Link": null }, "geometry": { "type": "Point", "coordinates": [ -91.564007, 41.685761, 0.0 ] } },
{ "type": "Feature", "properties": { "OBJECTID": 34, "District": 6, "Project_Title": "Sugar Creek near Cedar County Rest Areas", "Project_Number": "IM-NHS-080-8(341)269--03-16", "Description": "Grading, paving, and a new bridges on I-80 EB & WB at Sugar Creek in Cedar County near the rest areas. Expect lane closures and changing traffic conditions on I-80.", "Start_Date": "January 13, 2023", "End_Date": "Fall 2024", "Detour": "For the most recent detour/traffic control information, visit https://www.511ia.org/", "Contact_name": "Adrian Simonson", "Contact_Email": "adrian.simonson@iowadot.us", "PIM": null, "Additional_Project_Info": "Traffic switched to inside. Crews working on staged bridge constuction. All Lanes and Ramps Open. Work to complete Fall 2024.", "Share_Link": null }, "geometry": { "type": "Point", "coordinates": [ -91.063566, 41.642187, 0.0 ] } },
{ "type": "Feature", "properties": { "OBJECTID": 35, "District": 6, "Project_Title": "US 30 Benton County", "Project_Number": "NHSX-030-6(183)--3H-06", "Description": "About 4.5 miles of 2 lanes eastbound and 2 lane westbound will be constructed from 11th Ave Dr to W of Co Rd V44.", "Start_Date": "March 20, 2023", "End_Date": "Fall 2024", "Detour": "Detours will be used for 13th Ave and 15th Ave. Gravel roads will be closed as needed with no detours. All detour information will be on the 511ia page.", "Contact_name": "John Lamping", "Contact_Email": "john.lamping@iowadot.us ", "PIM": null, "Additional_Project_Info": "All traffic on EB lanes.", "Share_Link": null }, "geometry": { "type": "Point", "coordinates": [ -92.240338, 41.963884, 0.0 ] } },
{ "type": "Feature", "properties": { "OBJECTID": 36, "District": 6, "Project_Title": "I-80 Eastbound reconstruction in Johnson/ Cedar County", "Project_Number": "IM-NHS-080-7(127)251--03-52", "Description": "About 4 miles of I-80 Eastbound 6-lane expansion from Wapsi Ave to just East of West Branch to be reconstructed. This project is continuation of the 6-lane I-80 from Iowa City through West Branch. Expect changing traffic conditions on I-80.", "Start_Date": "April 1, 2024", "End_Date": "Fall 2024", "Detour": "Detours for ramp closures are planned. For the most recent detour/traffic control information, visit https://www.511ia.org/", "Contact_name": "Adrian Simonson", "Contact_Email": "adrian.simonson@iowadot.us", "PIM": null, "Additional_Project_Info": null, "Share_Link": null }, "geometry": { "type": "Point", "coordinates": [ -91.354764, 41.663733, 0.0 ] } },
{ "type": "Feature", "properties": { "OBJECTID": 37, "District": null, "Project_Title": "I-280 River Bridge (Illinois DOT project)", "Project_Number": "NHPP-YJLB (572)", "Description": "Bridge deck replacement and resurfacing.", "Start_Date": "January 2, 2021", "End_Date": "Fall 2023", "Detour": "https://iowadot.gov/majorprojects/I-280-bridge-Illinois-detour.pdf", "Contact_name": "Ryan Hippen", "Contact_Email": "Ryan.Hippen@Illinois.gov ", "PIM": null, "Additional_Project_Info": null, "Share_Link": null }, "geometry": { "type": "Point", "coordinates": [ -90.632087, 41.478811, 0.0 ] } }
]
}
